{"type": "FeatureCollection", "features": [ {"type": "Feature", "properties": {"norad_id": 60453, "name": "LEGION 4", "group": "resource", "lat": 39.937937276589174, "lon": 116.52962510721382, "alt_km": 516.9972054349955, "timestamp": "2025-12-09T09:46:47.305039+00:00", "meta": {"OBJECT_NAME": "LEGION 4", "OBJECT_ID": "2024-146B", "EPOCH": "2025-12-08T22:25:17.783040", "MEAN_MOTION": 15.15762126, "ECCENTRICITY": 0.00098137, "INCLINATION": 45.0387, "RA_OF_ASC_NODE": 62.2724, "ARG_OF_PERICENTER": 291.2286, "MEAN_ANOMALY": 68.7545, "EPHEMERIS_TYPE": 0, "CLASSIFICATION_TYPE": "U", "NORAD_CAT_ID": 60453, "ELEMENT_SET_NO": 999, "REV_AT_EPOCH": 7200, "BSTAR": 0.00034770066, "MEAN_MOTION_DOT": 6.494e-05, "MEAN_MOTION_DDOT": 0}, "tle": {"line1": "1 60453U 24146B   25342.93423360  .00006494  00000+0  34770-3 0  9997", "line2": "2 60453  45.0387  62.2724 0009813 291.2286  68.7545 15.15762126 72001"}}, "geometry": {"type": "Point", "coordinates": [116.52962510721382, 39.937937276589174]}}, {"type": "Feature", "properties": {"norad_id": 60989, "name": "SENTINEL-2C", "group": "resource", "lat": 50.00707500945042, "lon": -113.70807265746946, "alt_km": 783.69178976702, "timestamp": "2025-12-09T09:46:47.305050+00:00", "meta": {"OBJECT_NAME": "SENTINEL-2C", "OBJECT_ID": "2024-157A", "EPOCH": "2025-12-08T23:06:30.344544", "MEAN_MOTION": 14.30815255, "ECCENTRICITY": 0.00011865, "INCLINATION": 98.5686, "RA_OF_ASC_NODE": 55.4998, "ARG_OF_PERICENTER": 97.847, "MEAN_ANOMALY": 262.2847, "EPHEMERIS_TYPE": 0, "CLASSIFICATION_TYPE": "U", "NORAD_CAT_ID": 60989, "ELEMENT_SET_NO": 999, "REV_AT_EPOCH": 6578, "BSTAR": 0.00012495035, "MEAN_MOTION_DOT": 2.84e-06, "MEAN_MOTION_DDOT": 0}, "tle": {"line1": "1 60989U 24157A   25342.96285121  .00000284  00000+0  12495-3 0  9998", "line2": "2 60989  98.5686  55.4998 0001186  97.8470 262.2847 14.30815255 65788"}}, "geometry": {"type": "Point", "coordinates": [-113.70807265746946, 50.00707500945042]}}, {"type": "Feature", "properties": {"norad_id": 61735, "name": "IONOSFERA-M 1", "group": "resource", "lat": 46.65450392071383, "lon": 42.66269828376966, "alt_km": 812.2907126242944, "timestamp": "2025-12-09T09:46:47.305060+00:00", "meta": {"OBJECT_NAME": "IONOSFERA-M 1", "OBJECT_ID": "2024-199A", "EPOCH": "2025-12-08T23:01:54.275808", "MEAN_MOTION": 14.22712664, "ECCENTRICITY": 0.00011379, "INCLINATION": 98.7413, "RA_OF_ASC_NODE": 212.8368, "ARG_OF_PERICENTER": 26.9931, "MEAN_ANOMALY": 333.1305, "EPHEMERIS_TYPE": 0, "CLASSIFICATION_TYPE": "U", "NORAD_CAT_ID": 61735, "ELEMENT_SET_NO": 999, "REV_AT_EPOCH": 10065, "BSTAR": 7.046108e-05, "MEAN_MOTION_DOT": 1.14e-06, "MEAN_MOTION_DDOT": 0}, "tle": {"line1": "1 61735U 24199A   25342.95965597  .00000114  00000+0  70461-4 0  9995", "line2": "2 61735  98.7413 212.8368 0001137  26.9931 333.1305 14.22712664100653"}}, "geometry": {"type": "Point", "coordinates": [42.66269828376966, 46.65450392071383]}}, {"type": "Feature", "properties": {"norad_id": 61736, "name": "IONOSFERA-M 2", "group": "resource", "lat": -44.25801970541275, "lon": -138.18494006043548, "alt_km": 823.8802782053563, "timestamp": "2025-12-09T09:46:47.305070+00:00", "meta": {"OBJECT_NAME": "IONOSFERA-M 2", "OBJECT_ID": "2024-199B", "EPOCH": "2025-12-08T22:10:31.833120", "MEAN_MOTION": 14.22714826, "ECCENTRICITY": 0.00015593, "INCLINATION": 98.7404, "RA_OF_ASC_NODE": 212.7139, "ARG_OF_PERICENTER": 114.9693, "MEAN_ANOMALY": 245.1647, "EPHEMERIS_TYPE": 0, "CLASSIFICATION_TYPE": "U", "NORAD_CAT_ID": 61736, "ELEMENT_SET_NO": 999, "REV_AT_EPOCH": 10377, "BSTAR": 7.5135655e-05, "MEAN_MOTION_DOT": 1.24e-06, "MEAN_MOTION_DDOT": 0}, "tle": {"line1": "1 61736U 24199B   25342.92397955  .00000124  00000+0  75136-4 0  9995", "line2": "2 61736  98.7404 212.7139 0001559 114.9693 245.1647 14.22714826103779"}}, "geometry": {"type": "Point", "coordinates": [-138.18494006043548, -44.25801970541275]}}, {"type": "Feature", "properties": {"norad_id": 63772, "name": "BIOMASS", "group": "resource", "lat": -29.12126933282132, "lon": 172.9996574391177, "alt_km": 675.1151878850442, "timestamp": "2025-12-09T09:46:47.305081+00:00", "meta": {"OBJECT_NAME": "BIOMASS", "OBJECT_ID": "2025-090A", "EPOCH": "2025-12-08T22:27:32.509152", "MEAN_MOTION": 14.67531855, "ECCENTRICITY": 0.00012151, "INCLINATION": 98.0703, "RA_OF_ASC_NODE": 168.0015, "ARG_OF_PERICENTER": 79.9132, "MEAN_ANOMALY": 280.2209, "EPHEMERIS_TYPE": 0, "CLASSIFICATION_TYPE": "U", "NORAD_CAT_ID": 63772, "ELEMENT_SET_NO": 999, "REV_AT_EPOCH": 3278, "BSTAR": 0.00038082123, "MEAN_MOTION_DOT": 2.112e-05, "MEAN_MOTION_DDOT": 0}, "tle": {"line1": "1 63772U 25090A   25342.93579293  .00002112  00000+0  38082-3 0  9993", "line2": "2 63772  98.0703 168.0015 0001215  79.9132 280.2209 14.67531855 32783"}}, "geometry": {"type": "Point", "coordinates": [172.9996574391177, -29.12126933282132]}}, {"type": "Feature", "properties": {"norad_id": 64694, "name": "GOSAT-GW (IBUKI GW)", "group": "resource", "lat": -0.05317688055731057, "lon": 98.97331550456481, "alt_km": 672.0218754068701, "timestamp": "2025-12-09T09:46:47.305091+00:00", "meta": {"OBJECT_NAME": "GOSAT-GW (IBUKI GW)", "OBJECT_ID": "2025-141A", "EPOCH": "2025-12-08T18:14:08.043648", "MEAN_MOTION": 14.67565462, "ECCENTRICITY": 0.00014946, "INCLINATION": 98.0423, "RA_OF_ASC_NODE": 278.345, "ARG_OF_PERICENTER": 82.5316, "MEAN_ANOMALY": 277.6059, "EPHEMERIS_TYPE": 0, "CLASSIFICATION_TYPE": "U", "NORAD_CAT_ID": 64694, "ELEMENT_SET_NO": 999, "REV_AT_EPOCH": 2391, "BSTAR": 0.00038232231, "MEAN_MOTION_DOT": 2.122e-05, "MEAN_MOTION_DDOT": 0}, "tle": {"line1": "1 64694U 25141A   25342.75981532  .00002122  00000+0  38232-3 0  9995", "line2": "2 64694  98.0423 278.3450 0001494  82.5316 277.6059 14.67565462 23916"}}, "geometry": {"type": "Point", "coordinates": [98.97331550456481, -0.05317688055731057]}}, {"type": "Feature", "properties": {"norad_id": 64876, "name": "IONOSFERA-M 3", "group": "resource", "lat": 14.458564721003736, "lon": -56.86240343261636, "alt_km": 820.2745723441931, "timestamp": "2025-12-09T09:46:47.305102+00:00", "meta": {"OBJECT_NAME": "IONOSFERA-M 3", "OBJECT_ID": "2025-155A", "EPOCH": "2025-12-08T21:53:07.867968", "MEAN_MOTION": 14.21439443, "ECCENTRICITY": 0.00023172, "INCLINATION": 98.5777, "RA_OF_ASC_NODE": 304.8865, "ARG_OF_PERICENTER": 66.0191, "MEAN_ANOMALY": 294.1229, "EPHEMERIS_TYPE": 0, "CLASSIFICATION_TYPE": "U", "NORAD_CAT_ID": 64876, "ELEMENT_SET_NO": 999, "REV_AT_EPOCH": 1937, "BSTAR": 8.6934604e-05, "MEAN_MOTION_DOT": 1.47e-06, "MEAN_MOTION_DDOT": 0}, "tle": {"line1": "1 64876U 25155A   25342.91189662  .00000147  00000+0  86935-4 0  9993", "line2": "2 64876  98.5777 304.8865 0002317  66.0191 294.1229 14.21439443 19370"}}, "geometry": {"type": "Point", "coordinates": [-56.86240343261636, 14.458564721003736]}}, {"type": "Feature", "properties": {"norad_id": 64877, "name": "IONOSFERA-M 4", "group": "resource", "lat": -15.353143449229908, "lon": 122.91244018394579, "alt_km": 825.9382558719208, "timestamp": "2025-12-09T09:46:47.305112+00:00", "meta": {"OBJECT_NAME": "IONOSFERA-M 4", "OBJECT_ID": "2025-155B", "EPOCH": "2025-12-08T22:43:37.824384", "MEAN_MOTION": 14.21440551, "ECCENTRICITY": 0.00016716, "INCLINATION": 98.5776, "RA_OF_ASC_NODE": 304.8401, "ARG_OF_PERICENTER": 67.189, "MEAN_ANOMALY": 292.9465, "EPHEMERIS_TYPE": 0, "CLASSIFICATION_TYPE": "U", "NORAD_CAT_ID": 64877, "ELEMENT_SET_NO": 999, "REV_AT_EPOCH": 1937, "BSTAR": 8.6997525e-05, "MEAN_MOTION_DOT": 1.47e-06, "MEAN_MOTION_DDOT": 0}, "tle": {"line1": "1 64877U 25155B   25342.94696556  .00000147  00000+0  86998-4 0  9991", "line2": "2 64877  98.5776 304.8401 0001671  67.1890 292.9465 14.21440551 19376"}}, "geometry": {"type": "Point", "coordinates": [122.91244018394579, -15.353143449229908]}}, {"type": "Feature", "properties": {"norad_id": 64899, "name": "MICROCARB", "group": "resource", "lat": 74.17581078131192, "lon": -91.43324914068576, "alt_km": 639.9967273847433, "timestamp": "2025-12-09T09:46:47.305122+00:00", "meta": {"OBJECT_NAME": "MICROCARB", "OBJECT_ID": "2025-156A", "EPOCH": "2025-12-08T18:37:40.673280", "MEAN_MOTION": 14.72048184, "ECCENTRICITY": 0.00168853, "INCLINATION": 98.0029, "RA_OF_ASC_NODE": 58.1851, "ARG_OF_PERICENTER": 156.9107, "MEAN_ANOMALY": 203.2863, "EPHEMERIS_TYPE": 0, "CLASSIFICATION_TYPE": "U", "NORAD_CAT_ID": 64899, "ELEMENT_SET_NO": 999, "REV_AT_EPOCH": 1995, "BSTAR": 0.00024354323, "MEAN_MOTION_DOT": 1.484e-05, "MEAN_MOTION_DDOT": 0}, "tle": {"line1": "1 64899U 25156A   25342.77616520  .00001484  00000+0  24354-3 0  9992", "line2": "2 64899  98.0029  58.1851 0016885 156.9107 203.2863 14.72048184 19958"}}, "geometry": {"type": "Point", "coordinates": [-91.43324914068576, 74.17581078131192]}}, {"type": "Feature", "properties": {"norad_id": 64900, "name": "CO3D 3", "group": "resource", "lat": -69.92800845533021, "lon": 80.75995747234414, "alt_km": 513.436723232584, "timestamp": "2025-12-09T09:46:47.305133+00:00", "meta": {"OBJECT_NAME": "CO3D 3", "OBJECT_ID": "2025-156B", "EPOCH": "2025-12-08T18:17:44.446272", "MEAN_MOTION": 15.2019842, "ECCENTRICITY": 0.0001356, "INCLINATION": 97.4341, "RA_OF_ASC_NODE": 59.1865, "ARG_OF_PERICENTER": 106.1908, "MEAN_ANOMALY": 253.9476, "EPHEMERIS_TYPE": 0, "CLASSIFICATION_TYPE": "U", "NORAD_CAT_ID": 64900, "ELEMENT_SET_NO": 999, "REV_AT_EPOCH": 2060, "BSTAR": 0.0004581347, "MEAN_MOTION_DOT": 9.862e-05, "MEAN_MOTION_DDOT": 0}, "tle": {"line1": "1 64900U 25156B   25342.76231998  .00009862  00000+0  45813-3 0  9997", "line2": "2 64900  97.4341  59.1865 0001356 106.1908 253.9476 15.20198420 20609"}}, "geometry": {"type": "Point", "coordinates": [80.75995747234414, -69.92800845533021]}}]}